[{"OBJECT_NAME":"STARLINK-3715","OBJECT_ID":"2022-029AR","EPOCH":"2026-03-09T06:55:45.833952","MEAN_MOTION":15.08841874,"ECCENTRICITY":0.00012926,"INCLINATION":53.2168,"RA_OF_ASC_NODE":70.9209,"ARG_OF_PERICENTER":85.1131,"MEAN_ANOMALY":275.0008,"EPHEMERIS_TYPE":0,"CLASSIFICATION_TYPE":"U","NORAD_CAT_ID":52127,"ELEMENT_SET_NO":999,"REV_AT_EPOCH":22086,"BSTAR":0.00010768775,"MEAN_MOTION_DOT":1.426e-5,"MEAN_MOTION_DDOT":0},{"OBJECT_NAME":"FENGYUN 1C DEB","OBJECT_ID":"1999-025EXB","EPOCH":"2026-02-23T13:42:59.544864","MEAN_MOTION":14.51393564,"ECCENTRICITY":0.0280295,"INCLINATION":99.4251,"RA_OF_ASC_NODE":186.6378,"ARG_OF_PERICENTER":116.5278,"MEAN_ANOMALY":246.4942,"EPHEMERIS_TYPE":0,"CLASSIFICATION_TYPE":"U","NORAD_CAT_ID":40695,"ELEMENT_SET_NO":999,"REV_AT_EPOCH":32922,"BSTAR":0.00034500254,"MEAN_MOTION_DOT":2.228e-5,"MEAN_MOTION_DDOT":0}]
